{
  "norad_id": 63047,
  "name": "STARLINK-32590",
  "history": [
    {
      "epoch": "2026-03-28T14:48:56.598336",
      "apogee_km": 475.9517780649585,
      "perigee_km": 474.3481089201814,
      "latitude_deg": -38.31442356910837,
      "longitude_deg": -176.03711296012625,
      "semi_major_axis_km": 6853.28694349257,
      "eccentricity": 0.000117,
      "inclination_deg": 53.1594,
      "raan_deg": 170.2846,
      "arg_perigee_deg": 72.0636,
      "mean_anomaly_deg": 288.0493,
      "mean_motion_rev_day": 15.30221812
    }
  ]
}